{"type": "FeatureCollection", "features": [ {"type": "Feature", "properties": {"norad_id": 30035, "name": "FENGYUN 1C DEB", "group": "fengyun-1c-debris", "lat": -22.33554116776424, "lon": 84.75934212469241, "alt_km": 851.0051103933474, "timestamp": "2025-12-19T06:59:44.181798+00:00", "meta": {"OBJECT_NAME": "FENGYUN 1C DEB", "OBJECT_ID": "1999-025NL", "EPOCH": "2025-12-18T18:40:03.751680", "MEAN_MOTION": 14.36977731, "ECCENTRICITY": 0.01154123, "INCLINATION": 99.2712, "RA_OF_ASC_NODE": 268.0544, "ARG_OF_PERICENTER": 44.4715, "MEAN_ANOMALY": 21.8562, "EPHEMERIS_TYPE": 0, "CLASSIFICATION_TYPE": "U", "NORAD_CAT_ID": 30035, "ELEMENT_SET_NO": 999, "REV_AT_EPOCH": 99210, "BSTAR": 6.0556511e-05, "MEAN_MOTION_DOT": 1.41e-06, "MEAN_MOTION_DDOT": 0}, "tle": {"line1": "1 30035U 99025NL  25352.77782120  .00000141  00000+0  60557-4 0  9999", "line2": "2 30035  99.2712 268.0544 0115412  44.4715  21.8562 14.36977731992104"}}, "geometry": {"type": "Point", "coordinates": [84.75934212469241, -22.33554116776424]}}, {"type": "Feature", "properties": {"norad_id": 30036, "name": "FENGYUN 1C DEB", "group": "fengyun-1c-debris", "lat": 30.956414409154387, "lon": -154.78763216761794, "alt_km": 630.2331489263297, "timestamp": "2025-12-19T06:59:44.181808+00:00", "meta": {"OBJECT_NAME": "FENGYUN 1C DEB", "OBJECT_ID": "1999-025NM", "EPOCH": "2025-12-18T14:18:31.075200", "MEAN_MOTION": 14.46200579, "ECCENTRICITY": 0.01902453, "INCLINATION": 98.2523, "RA_OF_ASC_NODE": 19.5411, "ARG_OF_PERICENTER": 189.7662, "MEAN_ANOMALY": 302.3879, "EPHEMERIS_TYPE": 0, "CLASSIFICATION_TYPE": "U", "NORAD_CAT_ID": 30036, "ELEMENT_SET_NO": 999, "REV_AT_EPOCH": 99261, "BSTAR": 0.00029316375, "MEAN_MOTION_DOT": 1.261e-05, "MEAN_MOTION_DDOT": 0}, "tle": {"line1": "1 30036U 99025NM  25352.59619300  .00001261  00000+0  29316-3 0  9990", "line2": "2 30036  98.2523  19.5411 0190245 189.7662 302.3879 14.46200579992611"}}, "geometry": {"type": "Point", "coordinates": [-154.78763216761794, 30.956414409154387]}}, {"type": "Feature", "properties": {"norad_id": 30037, "name": "FENGYUN 1C DEB", "group": "fengyun-1c-debris", "lat": -75.9288061528858, "lon": 112.7712821274577, "alt_km": 875.4998580244346, "timestamp": "2025-12-19T06:59:44.181818+00:00", "meta": {"OBJECT_NAME": "FENGYUN 1C DEB", "OBJECT_ID": "1999-025NN", "EPOCH": "2025-12-18T21:33:13.336128", "MEAN_MOTION": 14.34126822, "ECCENTRICITY": 0.01741724, "INCLINATION": 98.3839, "RA_OF_ASC_NODE": 328.4314, "ARG_OF_PERICENTER": 36.8512, "MEAN_ANOMALY": 353.1973, "EPHEMERIS_TYPE": 0, "CLASSIFICATION_TYPE": "U", "NORAD_CAT_ID": 30037, "ELEMENT_SET_NO": 999, "REV_AT_EPOCH": 98876, "BSTAR": 0.00017930861, "MEAN_MOTION_DOT": 5.48e-06, "MEAN_MOTION_DDOT": 0}, "tle": {"line1": "1 30037U 99025NN  25352.89807102  .00000548  00000+0  17931-3 0  9990", "line2": "2 30037  98.3839 328.4314 0174172  36.8512 353.1973 14.34126822988769"}}, "geometry": {"type": "Point", "coordinates": [112.7712821274577, -75.9288061528858]}}, {"type": "Feature", "properties": {"norad_id": 30038, "name": "FENGYUN 1C DEB", "group": "fengyun-1c-debris", "lat": 50.57834418145509, "lon": -29.544779867251933, "alt_km": 598.2428474904336, "timestamp": "2025-12-19T06:59:44.181828+00:00", "meta": {"OBJECT_NAME": "FENGYUN 1C DEB", "OBJECT_ID": "1999-025NP", "EPOCH": "2025-12-18T22:39:58.175712", "MEAN_MOTION": 14.39307638, "ECCENTRICITY": 0.02580007, "INCLINATION": 98.3686, "RA_OF_ASC_NODE": 340.4316, "ARG_OF_PERICENTER": 84.2381, "MEAN_ANOMALY": 331.4464, "EPHEMERIS_TYPE": 0, "CLASSIFICATION_TYPE": "U", "NORAD_CAT_ID": 30038, "ELEMENT_SET_NO": 999, "REV_AT_EPOCH": 98980, "BSTAR": 0.00019305094, "MEAN_MOTION_DOT": 8.35e-06, "MEAN_MOTION_DDOT": 0}, "tle": {"line1": "1 30038U 99025NP  25352.94442333  .00000835  00000+0  19305-3 0  9994", "line2": "2 30038  98.3686 340.4316 0258000  84.2381 331.4464 14.39307638989801"}}, "geometry": {"type": "Point", "coordinates": [-29.544779867251933, 50.57834418145509]}}, {"type": "Feature", "properties": {"norad_id": 30040, "name": "FENGYUN 1C DEB", "group": "fengyun-1c-debris", "lat": 50.16389191045315, "lon": -160.6151763332051, "alt_km": 785.4016434756295, "timestamp": "2025-12-19T06:59:44.181839+00:00", "meta": {"OBJECT_NAME": "FENGYUN 1C DEB", "OBJECT_ID": "1999-025NR", "EPOCH": "2025-12-18T00:34:10.610688", "MEAN_MOTION": 14.37169352, "ECCENTRICITY": 0.00323025, "INCLINATION": 98.2331, "RA_OF_ASC_NODE": 8.177, "ARG_OF_PERICENTER": 296.75, "MEAN_ANOMALY": 117.0866, "EPHEMERIS_TYPE": 0, "CLASSIFICATION_TYPE": "U", "NORAD_CAT_ID": 30040, "ELEMENT_SET_NO": 999, "REV_AT_EPOCH": 98004, "BSTAR": 0.0013499754, "MEAN_MOTION_DOT": 3.999e-05, "MEAN_MOTION_DDOT": 0}, "tle": {"line1": "1 30040U 99025NR  25352.02373392  .00003999  00000+0  13500-2 0  9998", "line2": "2 30040  98.2331   8.1770 0032302 296.7500 117.0866 14.37169352980048"}}, "geometry": {"type": "Point", "coordinates": [-160.6151763332051, 50.16389191045315]}}, {"type": "Feature", "properties": {"norad_id": 30041, "name": "FENGYUN 1C DEB", "group": "fengyun-1c-debris", "lat": -47.71154189932662, "lon": -90.40510055731438, "alt_km": 833.1424567383683, "timestamp": "2025-12-19T06:59:44.181849+00:00", "meta": {"OBJECT_NAME": "FENGYUN 1C DEB", "OBJECT_ID": "1999-025NS", "EPOCH": "2025-12-18T20:17:14.518752", "MEAN_MOTION": 14.13196011, "ECCENTRICITY": 0.00350462, "INCLINATION": 99.4672, "RA_OF_ASC_NODE": 99.6941, "ARG_OF_PERICENTER": 200.2193, "MEAN_ANOMALY": 279.4043, "EPHEMERIS_TYPE": 0, "CLASSIFICATION_TYPE": "U", "NORAD_CAT_ID": 30041, "ELEMENT_SET_NO": 999, "REV_AT_EPOCH": 97373, "BSTAR": 0.00036870016, "MEAN_MOTION_DOT": 6.45e-06, "MEAN_MOTION_DDOT": 0}, "tle": {"line1": "1 30041U 99025NS  25352.84530693  .00000645  00000+0  36870-3 0  9999", "line2": "2 30041  99.4672  99.6941 0035046 200.2193 279.4043 14.13196011973735"}}, "geometry": {"type": "Point", "coordinates": [-90.40510055731438, -47.71154189932662]}}, {"type": "Feature", "properties": {"norad_id": 30043, "name": "FENGYUN 1C DEB", "group": "fengyun-1c-debris", "lat": 52.7263280544302, "lon": -77.35876801653184, "alt_km": 610.2746829653188, "timestamp": "2025-12-19T06:59:44.181859+00:00", "meta": {"OBJECT_NAME": "FENGYUN 1C DEB", "OBJECT_ID": "1999-025NU", "EPOCH": "2025-12-18T20:18:03.953376", "MEAN_MOTION": 14.23603842, "ECCENTRICITY": 0.0283586, "INCLINATION": 98.6277, "RA_OF_ASC_NODE": 90.6963, "ARG_OF_PERICENTER": 113.2635, "MEAN_ANOMALY": 249.8667, "EPHEMERIS_TYPE": 0, "CLASSIFICATION_TYPE": "U", "NORAD_CAT_ID": 30043, "ELEMENT_SET_NO": 999, "REV_AT_EPOCH": 97432, "BSTAR": 0.00059049093, "MEAN_MOTION_DOT": 1.992e-05, "MEAN_MOTION_DDOT": 0}, "tle": {"line1": "1 30043U 99025NU  25352.84587909  .00001992  00000+0  59049-3 0  9992", "line2": "2 30043  98.6277  90.6963 0283586 113.2635 249.8667 14.23603842974327"}}, "geometry": {"type": "Point", "coordinates": [-77.35876801653184, 52.7263280544302]}}, {"type": "Feature", "properties": {"norad_id": 30044, "name": "FENGYUN 1C DEB", "group": "fengyun-1c-debris", "lat": -70.19114554921117, "lon": -62.93659838695951, "alt_km": 774.5600511166585, "timestamp": "2025-12-19T06:59:44.181869+00:00", "meta": {"OBJECT_NAME": "FENGYUN 1C DEB", "OBJECT_ID": "1999-025NV", "EPOCH": "2025-12-18T18:05:20.451552", "MEAN_MOTION": 14.50730697, "ECCENTRICITY": 0.00798036, "INCLINATION": 98.2122, "RA_OF_ASC_NODE": 272.9022, "ARG_OF_PERICENTER": 148.5048, "MEAN_ANOMALY": 212.0961, "EPHEMERIS_TYPE": 0, "CLASSIFICATION_TYPE": "U", "NORAD_CAT_ID": 30044, "ELEMENT_SET_NO": 999, "REV_AT_EPOCH": 98126, "BSTAR": 0.0011522665, "MEAN_MOTION_DOT": 4.678e-05, "MEAN_MOTION_DDOT": 0}, "tle": {"line1": "1 30044U 99025NV  25352.75370893  .00004678  00000+0  11523-2 0  9993", "line2": "2 30044  98.2122 272.9022 0079803 148.5048 212.0961 14.50730697981267"}}, "geometry": {"type": "Point", "coordinates": [-62.93659838695951, -70.19114554921117]}}, {"type": "Feature", "properties": {"norad_id": 30045, "name": "FENGYUN 1C DEB", "group": "fengyun-1c-debris", "lat": 52.230117530131345, "lon": -138.83592201920695, "alt_km": 756.9753036113134, "timestamp": "2025-12-19T06:59:44.181879+00:00", "meta": {"OBJECT_NAME": "FENGYUN 1C DEB", "OBJECT_ID": "1999-025NW", "EPOCH": "2025-12-18T01:56:56.569920", "MEAN_MOTION": 14.21649283, "ECCENTRICITY": 0.00944114, "INCLINATION": 99.1787, "RA_OF_ASC_NODE": 27.8614, "ARG_OF_PERICENTER": 98.2417, "MEAN_ANOMALY": 317.2481, "EPHEMERIS_TYPE": 0, "CLASSIFICATION_TYPE": "U", "NORAD_CAT_ID": 30045, "ELEMENT_SET_NO": 999, "REV_AT_EPOCH": 96764, "BSTAR": 0.0015727337, "MEAN_MOTION_DOT": 3.566e-05, "MEAN_MOTION_DDOT": 0}, "tle": {"line1": "1 30045U 99025NW  25352.08121030  .00003566  00000+0  15727-2 0  9992", "line2": "2 30045  99.1787  27.8614 0094411  98.2417 317.2481 14.21649283967641"}}, "geometry": {"type": "Point", "coordinates": [-138.83592201920695, 52.230117530131345]}}, {"type": "Feature", "properties": {"norad_id": 30047, "name": "FENGYUN 1C DEB", "group": "fengyun-1c-debris", "lat": 37.82958578748809, "lon": -21.42466491815853, "alt_km": 998.4715390958672, "timestamp": "2025-12-19T06:59:44.181889+00:00", "meta": {"OBJECT_NAME": "FENGYUN 1C DEB", "OBJECT_ID": "1999-025NY", "EPOCH": "2025-12-18T09:46:54.786720", "MEAN_MOTION": 13.94365122, "ECCENTRICITY": 0.01256865, "INCLINATION": 99.9192, "RA_OF_ASC_NODE": 149.8175, "ARG_OF_PERICENTER": 307.6769, "MEAN_ANOMALY": 79.528, "EPHEMERIS_TYPE": 0, "CLASSIFICATION_TYPE": "U", "NORAD_CAT_ID": 30047, "ELEMENT_SET_NO": 999, "REV_AT_EPOCH": 95995, "BSTAR": 0.00045619092, "MEAN_MOTION_DOT": 5.97e-06, "MEAN_MOTION_DDOT": 0}, "tle": {"line1": "1 30047U 99025NY  25352.40757855  .00000597  00000+0  45619-3 0  9995", "line2": "2 30047  99.9192 149.8175 0125686 307.6769  79.5280 13.94365122959950"}}, "geometry": {"type": "Point", "coordinates": [-21.42466491815853, 37.82958578748809]}}]}